HST                     
1 20580U 90037B   26068.15977042  .00009063  00000+0  30023-3 0  9999
2 20580  28.4717  43.6133 0001837 120.9992 239.0785 15.29473555773239
STARLINK-35207          
1 65500U 25198J   26068.85569785  .00029328  00000+0  99927-3 0  9998
2 65500  53.1567 270.3556 0000958 100.6259 259.4849 15.30172373 28641
